NORAD_CAT_ID,OBJECT_NAME,OBJECT_TYPE,EPOCH,MEAN_MOTION,ECCENTRICITY,INCLINATION,RA_OF_ASC_NODE,ARG_OF_PERICENTER,MEAN_ANOMALY,BSTAR,MEAN_MOTION_DOT,MEAN_MOTION_DDOT,TLE_LINE0,TLE_LINE1,TLE_LINE2,SEMIMAJOR_AXIS,PERIOD,APOGEE,PERIGEE,DECAYED
53142.0,STARLINK-4101,PAYLOAD,2024-05-18 16:53:18,15.08856331,0.0001331,53.2149,256.8814,102.5456,257.5685,0.00017754,2.54e-05,0.0,0 STARLINK-4101,1 53142U 22083L   24139.70369076  .00002540  00000-0  17754-3 0  9995,2 53142  53.2149 256.8814 0001331 102.5456 257.5685 15.08856331102210,6917.83,95.437,540.616,538.775,0.0
53142.0,STARLINK-4101,PAYLOAD,2024-05-19 00:50:15,15.08830211,6.79e-05,53.2148,255.395,82.8801,277.2268,-0.00034923,-5.84e-05,0.0,0 STARLINK-4101,1 53142U 22083L   24140.03490289 -.00005840  00000-0 -34923-3 0  9999,2 53142  53.2148 255.3950 0000679  82.8801 277.2268 15.08830211102262,6917.91,95.438,540.245,539.306,0.0
53142.0,STARLINK-4101,PAYLOAD,2024-05-19 13:33:22,15.08815127,0.0001444,53.2154,253.0174,91.4782,268.6375,-0.00024372,-4.162e-05,0.0,0 STARLINK-4101,1 53142U 22083L   24140.56484335 -.00004162  00000-0 -24372-3 0  9995,2 53142  53.2154 253.0174 0001444  91.4782 268.6375 15.08815127101729,6917.956,95.439,540.82,538.822,0.0
53142.0,STARLINK-4101,PAYLOAD,2024-05-20 11:48:45,15.08840914,0.0001238,53.2151,248.8531,129.1411,230.9691,0.00029313,4.38e-05,0.0,0 STARLINK-4101,1 53142U 22083L   24141.49219341  .00004380  00000-0  29313-3 0  9991,2 53142  53.2151 248.8531 0001238 129.1411 230.9691 15.08840914102483,6917.878,95.437,540.599,538.886,0.0
53142.0,STARLINK-4101,PAYLOAD,2024-05-20 13:24:07,15.08865735,0.0001218,53.2157,248.5554,92.108,268.0052,0.00041173,6.275e-05,0.0,0 STARLINK-4101,1 53142U 22083L   24141.55842534  .00006275  00000-0  41173-3 0  9997,2 53142  53.2157 248.5554 0001218  92.1080 268.0052 15.08865735101873,6917.802,95.436,540.509,538.824,0.0
53142.0,STARLINK-4101,PAYLOAD,2024-05-20 16:34:53,15.08869474,0.0001365,53.2158,247.9597,120.0321,240.0807,0.00045004,6.887e-05,0.0,0 STARLINK-4101,1 53142U 22083L   24141.69090066  .00006887  00000-0  45004-3 0  9993,2 53142  53.2158 247.9597 0001365 120.0321 240.0807 15.08869474102510,6917.79,95.436,540.6,538.711,0.0
53142.0,STARLINK-4101,PAYLOAD,2024-05-21 13:14:55,15.0884311,0.0001346,53.2163,244.0984,114.876,245.2373,6.6173e-05,7.65e-06,0.0,0 STARLINK-4101,1 53142U 22083L   24142.55203450  .00000765  00000-0  66173-4 0  9992,2 53142  53.2163 244.0984 0001346 114.8760 245.2373 15.08843110102649,6917.871,95.437,540.667,538.805,0.0
53142.0,STARLINK-4101,PAYLOAD,2024-05-22 11:30:18,15.08835123,0.0001405,53.2166,239.9289,86.6987,273.4166,-0.00049997,-8.235e-05,0.0,0 STARLINK-4101,1 53142U 22083L   24143.47938266 -.00008235  00000-0 -49997-3 0  9990,2 53142  53.2166 239.9289 0001405  86.6987 273.4166 15.08835123102161,6917.895,95.438,540.732,538.788,0.0
53142.0,STARLINK-4101,PAYLOAD,2024-05-23 12:56:29,15.08842943,0.0001257,53.2158,235.1736,86.6734,273.4402,3.9057e-05,3.34e-06,0.0,0 STARLINK-4101,1 53142U 22083L   24144.53923042  .00000334  00000-0  39057-4 0  9991,2 53142  53.2158 235.1736 0001257  86.6734 273.4402 15.08842943102949,6917.871,95.437,540.606,538.867,0.0
53142.0,STARLINK-4101,PAYLOAD,2024-05-24 11:11:53,15.08837211,0.0001504,53.2166,231.0147,64.4738,295.641,0.0004714,7.222e-05,0.0,0 STARLINK-4101,1 53142U 22083L   24145.46659294  .00007222  00000-0  47140-3 0  9993,2 53142  53.2166 231.0147 0001504  64.4738 295.6410 15.08837211102466,6917.889,95.438,540.794,538.713,0.0
53142.0,STARLINK-4101,PAYLOAD,2024-05-24 15:58:02,15.08847027,0.0001441,53.2161,230.1166,95.5055,264.6102,0.00047091,7.216e-05,0.0,0 STARLINK-4101,1 53142U 22083L   24145.66530622  .00007216  00000-0  47091-3 0  9996,2 53142  53.2161 230.1166 0001441  95.5055 264.6102 15.08847027103112,6917.859,95.437,540.721,538.727,0.0
53142.0,STARLINK-4101,PAYLOAD,2024-05-24 22:19:35,15.08833203,0.0001398,53.2157,228.9342,118.2439,241.8694,0.00013581,1.874e-05,0.0,0 STARLINK-4101,1 53142U 22083L   24145.93027113  .00001874  00000-0  13581-3 0  9993,2 53142  53.2157 228.9342 0001398 118.2439 241.8694 15.08833203102537,6917.901,95.438,540.733,538.799,0.0
53142.0,STARLINK-4101,PAYLOAD,2024-05-25 12:38:05,15.08805322,0.0001738,53.2167,226.2671,124.3354,235.7803,-0.00045778,-7.559e-05,0.0,0 STARLINK-4101,1 53142U 22083L   24146.52644954 -.00007559  00000-0 -45778-3 0  9998,2 53142  53.2167 226.2671 0001738 124.3354 235.7803 15.08805322103240,6917.986,95.44,541.054,538.649,0.0
53142.0,STARLINK-4101,PAYLOAD,2024-05-25 14:13:30,15.08754922,0.0001219,53.2162,225.9697,107.6621,252.4504,-0.0012271,-0.00019718,0.0,0 STARLINK-4101,1 53142U 22083L   24146.59271400 -.00019718  00000-0 -12271-2 0  9998,2 53142  53.2162 225.9697 0001219 107.6621 252.4504 15.08754922102639,6918.14,95.443,540.849,539.162,0.0
53142.0,STARLINK-4101,PAYLOAD,2024-05-25 22:10:24,15.08780869,0.0002315,53.2155,224.4823,339.0308,21.0588,-0.00088594,-0.00014338,0.0,0 STARLINK-4101,1 53142U 22083L   24146.92389375 -.00014338  00000-0 -88594-3 0  9991,2 53142  53.2155 224.4823 0002315 339.0308  21.0588 15.08780869103303,6918.061,95.441,541.528,538.325,0.0
53142.0,STARLINK-4101,PAYLOAD,2024-05-26 10:53:28,15.08844169,0.0001194,53.2144,222.0944,97.1128,263.0,8.3095e-05,1.035e-05,0.0,0 STARLINK-4101,1 53142U 22083L   24147.45379633  .00001035  00000-0  83095-4 0  9996,2 53142  53.2144 222.0944 0001194  97.1128 263.0000 15.08844169103384,6917.868,95.437,540.559,538.907,0.0
53142.0,STARLINK-4101,PAYLOAD,2024-05-27 04:22:42,15.08840641,0.0001173,53.2137,218.8239,72.1388,287.9732,0.00029839,4.464e-05,0.0,0 STARLINK-4101,1 53142U 22083L   24148.18244135  .00004464  00000-0  29839-3 0  9999,2 53142  53.2137 218.8239 0001173  72.1388 287.9732 15.08840641103494,6917.878,95.438,540.555,538.932,0.0
53142.0,STARLINK-4101,PAYLOAD,2024-05-28 10:35:02,15.08846803,0.0001432,53.2145,213.173,65.1706,294.9435,0.00012035,1.628e-05,0.0,0 STARLINK-4101,1 53142U 22083L   24149.44099842  .00001628  00000-0  12035-3 0  9991,2 53142  53.2145 213.1730 0001432  65.1706 294.9435 15.08846803103686,6917.86,95.437,540.715,538.734,0.0
53142.0,STARLINK-4101,PAYLOAD,2024-05-29 04:04:16,15.08840304,0.0001509,53.2147,209.9024,65.4522,294.6627,4.5637e-05,4.38e-06,0.0,0 STARLINK-4101,1 53142U 22083L   24150.16964113  .00000438  00000-0  45637-4 0  9997,2 53142  53.2147 209.9024 0001509  65.4522 294.6627 15.08840304103793,6917.879,95.438,540.788,538.701,0.0
53142.0,STARLINK-4101,PAYLOAD,2024-05-29 10:25:49,15.08838411,0.000134,53.2154,208.7118,72.9506,287.1633,2.3246e-05,8.2e-07,0.0,0 STARLINK-4101,1 53142U 22083L   24150.43460313  .00000082  00000-0  23246-4 0  9997,2 53142  53.2154 208.7118 0001340  72.9506 287.1633 15.08838411103217,6917.885,95.438,540.677,538.823,0.0
53142.0,STARLINK-4101,PAYLOAD,2024-05-30 10:16:35,15.08847521,0.0001339,53.2151,204.2514,80.7168,279.3975,0.00011642,1.566e-05,0.0,0 STARLINK-4101,1 53142U 22083L   24151.42819391  .00001566  00000-0  11642-3 0  9995,2 53142  53.2151 204.2514 0001339  80.7168 279.3975 15.08847521103982,6917.857,95.437,540.649,538.796,0.0
53142.0,STARLINK-4101,PAYLOAD,2024-05-31 03:45:51,15.08838656,0.0001436,53.2152,200.9806,78.5315,281.5838,0.00010118,1.323e-05,0.0,0 STARLINK-4101,1 53142U 22083L   24152.15684036  .00001323  00000-0  10118-3 0  9990,2 53142  53.2152 200.9806 0001436  78.5315 281.5838 15.08838656104092,6917.884,95.438,540.743,538.756,0.0
53142.0,STARLINK-4101,PAYLOAD,2024-05-31 08:32:00,15.08839083,0.000142,53.2157,200.0885,86.8584,273.2571,9.5614e-05,1.234e-05,0.0,0 STARLINK-4101,1 53142U 22083L   24152.35555991  .00001234  00000-0  95614-4 0  9995,2 53142  53.2157 200.0885 0001420  86.8584 273.2571 15.08839083103500,6917.883,95.438,540.731,538.766,0.0
53142.0,STARLINK-4101,PAYLOAD,2024-05-31 19:39:42,15.08841373,0.000134,53.2153,198.0058,86.0187,274.0958,7.4224e-05,8.94e-06,0.0,0 STARLINK-4101,1 53142U 22083L   24152.81923797  .00000894  00000-0  74224-4 0  9994,2 53142  53.2153 198.0058 0001340  86.0187 274.0958 15.08841373103576,6917.876,95.437,540.668,538.814,0.0
53142.0,STARLINK-4101,PAYLOAD,2024-06-01 09:58:10,15.08837967,0.0001373,53.2164,195.3318,91.9515,268.1634,-1.5443e-05,-5.34e-06,0.0,0 STARLINK-4101,1 53142U 22083L   24153.41540308 -.00000534  00000-0 -15443-4 0  9995,2 53142  53.2164 195.3318 0001373  91.9515 268.1634 15.08837967104281,6917.887,95.438,540.701,538.802,0.0
53142.0,STARLINK-4101,PAYLOAD,2024-06-02 11:24:21,15.08839517,0.000149,53.2161,190.574,91.0681,269.0482,-8.887e-05,-1.702e-05,0.0,0 STARLINK-4101,1 53142U 22083L   24154.47524791 -.00001702  00000-0 -88870-4 0  9992,2 53142  53.2161 190.5740 0001490  91.0681 269.0482 15.08839517104441,6917.882,95.438,540.778,538.716,0.0
53142.0,STARLINK-4101,PAYLOAD,2024-06-03 11:15:10,15.08817014,0.0001167,53.2143,186.1105,109.4624,250.6494,-7.181e-05,-1.43e-05,0.0,0 STARLINK-4101,1 53142U 22083L   24155.46887131 -.00001430  00000-0 -71810-4 0  9996,2 53142  53.2143 186.1105 0001167 109.4624 250.6494 15.08817014104592,6917.951,95.439,540.623,539.008,0.0
53142.0,STARLINK-4101,PAYLOAD,2024-06-03 19:12:05,15.08827796,0.0001244,53.2153,184.6253,84.189,275.9244,3.1152e-05,2.08e-06,0.0,0 STARLINK-4101,1 53142U 22083L   24155.80006647  .00000208  00000-0  31152-4 0  9994,2 53142  53.2153 184.6253 0001244  84.1890 275.9244 15.08827796104647,6917.918,95.438,540.643,538.922,0.0
53142.0,STARLINK-4101,PAYLOAD,2024-06-04 09:30:33,15.0884022,0.0001213,53.2146,181.9465,82.8361,277.2769,0.00013993,1.94e-05,0.0,0 STARLINK-4101,1 53142U 22083L   24156.39621842  .00001940  00000-0  13993-3 0  9995,2 53142  53.2146 181.9465 0001213  82.8361 277.2769 15.08840220104732,6917.88,95.438,540.584,538.906,0.0
53142.0,STARLINK-4101,PAYLOAD,2024-06-04 19:02:51,15.08847991,0.0001267,53.2148,180.1628,85.213,274.9006,0.00013583,1.875e-05,0.0,0 STARLINK-4101,1 53142U 22083L   24156.79365488  .00001875  00000-0  13583-3 0  9992,2 53142  53.2148 180.1628 0001267  85.2130 274.9006 15.08847991104174,6917.856,95.437,540.597,538.844,0.0
